STARLINK-34597          
1 64738U 25144Q   25190.83261928  .00016854  11191-4  63749-4 0  9994
2 64738  53.1545 235.9526 0005031  61.1990 298.9541 15.90745677  2416
STARLINK-34471          
1 64739U 25144R   25190.83228336 -.00005706  11051-4 -69098-5 0  9996
2 64739  53.1544 235.9507 0004995  58.0255 302.1257 15.90795761  2378
STARLINK-34208          
1 64740U 25144S   25190.83189354  .00046024  11901-4  15403-3 0  9993
2 64740  53.1546 235.9475 0005401  59.2903 300.8655 15.90882340  2436
STARLINK-34205          
1 64741U 25144T   25190.83155809 -.00011154  11073-4 -23774-4 0  9991
2 64741  53.1546 235.9454 0005587  57.5772 302.5795 15.90918219  2433
STARLINK-34607          
1 64742U 25144U   25190.83118449 -.00138059  17123-4 -41718-3 0  9994
2 64742  53.1543 235.9423 0001870  27.7895 332.3232 15.90971108  2414
STARLINK-34236          
1 64743U 25144V   25190.83081331  .00025709  11352-4  89985-4 0  9996
2 64743  53.1545 235.9400 0005680  57.9227 302.2351 15.91064318  2436
STARLINK-34185          
1 64744U 25144W   25190.83049298  .00031195  11475-4  10658-3 0  9995
2 64744  53.1544 235.9380 0005620  58.4024 301.7551 15.91121420  2432
STARLINK-34581          
1 64745U 25144X   25190.83016564  .00000775  11066-4  13097-4 0  9993
2 64745  53.1543 235.9354 0005839  57.1891 302.9697 15.91164673  2434
STARLINK-34592          
1 64746U 25144Y   25190.82976208 -.00003615  11061-4 -35758-6 0  9996
2 64746  53.1545 235.9329 0005493  58.6537 301.5028 15.91230937  2438
STARLINK-34589          
1 64747U 25144Z   25190.82940976  .00002776  11076-4  19109-4 0  9991
2 64747  53.1544 235.9303 0005566  59.5424 300.6152 15.91293244  2434
STARLINK-34536          
1 64748U 25144AA  25190.82901648  .00003709  11082-4  21873-4 0  9990
2 64748  53.1543 235.9279 0005767  55.9076 304.2497 15.91359619  2433
STARLINK-34595          
1 64749U 25144AB  25190.82824826 -.00014109  11106-4 -31993-4 0  9992
2 64749  53.1542 235.9226 0005851  56.1953 303.9630 15.91476680  2439
STARLINK-34531          
1 64750U 25144AC  25190.82865978 -.00007439  11071-4 -11919-4 0  9992
2 64750  53.1544 235.9254 0006016  56.9666 303.1938 15.91410277  2430
PROGRESS-MS 31          
1 64751U 25146A   25190.52144679  .00007341  00000+0  13435-3 0  9999
2 64751  51.6352 196.3664 0002539 358.9095 107.2378 15.50452632518050
SHIYAN-28B 01           
1 64753U 25145A   25190.39005110  .00000746  00000+0  12158-3 0  9994
2 64753  11.0004  40.3166 0002363 120.4156 239.6216 14.29195755   799
CZ-4C R/B               
1 64754U 25145B   25190.27885717  .00001119  00000+0  11410-3 0  9996
2 64754  10.9854  39.2925 0121657  74.2546 287.1069 14.56347189   747
